[{"OBJECT_NAME":"STARLINK-11546 [DTC]","OBJECT_ID":"2025-019G","EPOCH":"2026-03-09T22:28:41.082240","MEAN_MOTION":15.70888564,"ECCENTRICITY":0.00014962,"INCLINATION":42.9993,"RA_OF_ASC_NODE":305.0243,"ARG_OF_PERICENTER":268.0205,"MEAN_ANOMALY":92.0492,"EPHEMERIS_TYPE":0,"CLASSIFICATION_TYPE":"U","NORAD_CAT_ID":62835,"ELEMENT_SET_NO":999,"REV_AT_EPOCH":6391,"BSTAR":0.0014974362,"MEAN_MOTION_DOT":0.00196709,"MEAN_MOTION_DDOT":0},{"OBJECT_NAME":"CZ-6A DEB","OBJECT_ID":"2024-140AY","EPOCH":"2026-03-09T23:18:41.702400","MEAN_MOTION":15.62067616,"ECCENTRICITY":0.0034385,"INCLINATION":89.347,"RA_OF_ASC_NODE":305.7787,"ARG_OF_PERICENTER":51.1175,"MEAN_ANOMALY":309.3152,"EPHEMERIS_TYPE":0,"CLASSIFICATION_TYPE":"U","NORAD_CAT_ID":60647,"ELEMENT_SET_NO":999,"REV_AT_EPOCH":8292,"BSTAR":0.0060093898,"MEAN_MOTION_DOT":0.00575832,"MEAN_MOTION_DDOT":0}]
